[{"OBJECT_NAME":"STARLINK-6030","OBJECT_ID":"2023-046Q","EPOCH":"2026-03-08T14:54:09.315360","MEAN_MOTION":15.0253491,"ECCENTRICITY":0.00011807,"INCLINATION":43.0021,"RA_OF_ASC_NODE":164.5463,"ARG_OF_PERICENTER":256.1191,"MEAN_ANOMALY":103.952,"EPHEMERIS_TYPE":0,"CLASSIFICATION_TYPE":"U","NORAD_CAT_ID":56107,"ELEMENT_SET_NO":999,"REV_AT_EPOCH":16190,"BSTAR":3.118355e-6,"MEAN_MOTION_DOT":-1.61e-6,"MEAN_MOTION_DDOT":0},{"OBJECT_NAME":"MINOTAUR 4 DEB","OBJECT_ID":"2020-046AB","EPOCH":"2026-03-09T21:53:22.840224","MEAN_MOTION":15.04149387,"ECCENTRICITY":0.00103054,"INCLINATION":53.9803,"RA_OF_ASC_NODE":316.6393,"ARG_OF_PERICENTER":80.1776,"MEAN_ANOMALY":280.0387,"EPHEMERIS_TYPE":0,"CLASSIFICATION_TYPE":"U","NORAD_CAT_ID":52037,"ELEMENT_SET_NO":999,"REV_AT_EPOCH":22693,"BSTAR":0.00012711185,"MEAN_MOTION_DOT":1.507e-5,"MEAN_MOTION_DDOT":0}]
